QIANFAN-57              
1 62787U 25016C   26023.96768356  .00000183  00000+0  26484-3 0  9995
2 62787  88.9763  98.8442 0002311  89.6913 270.4503 13.50990909 52903
QIANFAN-58              
1 62788U 25016D   26023.93881388  .00000196  00000+0  28447-3 0  9999
2 62788  88.9732  98.6658 0013239 213.3616 146.6702 13.50992825 52942
QIANFAN-59              
1 62789U 25016E   26023.96353185  .00000191  00000+0  27671-3 0  9995
2 62789  88.9756  98.7470 0013469 217.5190 142.5022 13.50988987 52944
QIANFAN-60              
1 62790U 25016F   26023.92233376  .00000178  00000+0  25646-3 0  9997
2 62790  88.9737  98.7146 0015126 214.7012 145.3153 13.50986943 52923
QIANFAN-61              
1 62791U 25016G   26023.95529656  .00000185  00000+0  26746-3 0  9990
2 62791  88.9805  98.9029 0014070 213.4481 146.5783 13.50988406 52945
QIANFAN-62              
1 62792U 25016H   26023.95941719  .00000177  00000+0  25578-3 0  9992
2 62792  88.9751  98.7480 0015438 214.4676 145.5475 13.50991017 52939
QIANFAN-63              
1 62793U 25016J   26023.83596060  .00000182  00000+0  26251-3 0  9990
2 62793  88.9758  98.7152 0015316 220.4620 139.5393 13.50989183 52959
QIANFAN-64              
1 62794U 25016K   26023.95116993  .00000175  00000+0  25294-3 0  9995
2 62794  88.9744  98.6716 0013497 211.7304 148.3035 13.50987712 52968
